HOOPOE                  
1 42718U 98067LZ  17318.35825782  .00020591  00000-0  23885-3 0  9998
2 42718  51.6393   5.0483 0002518 145.1515 214.9644 15.61756191 27291
CHALLENGER              
1 42721U 98067MA  17318.49775800  .00032088  00000-0  34059-3 0  9991
2 42721  51.6378   3.7173 0004818 124.6890 235.4559 15.63763207 27024
NJUST-1                 
1 42722U 98067MB  17318.40165236  .00014867  00000-0  18770-3 0  9996
2 42722  51.6399   6.0870 0006027 138.2643 221.8811 15.59788222 26982
UNSW-ECO                
1 42723U 98067MC  17318.45603743  .00021977  00000-0  25538-3 0  9992
2 42723  51.6399   4.9548 0005264 132.0501 228.0942 15.61655460 26983
DUTHSAT                 
1 42724U 98067MD  17318.39083970  .00029215  00000-0  31555-3 0  9999
2 42724  51.6389   4.5139 0004036 125.3297 234.8075 15.63372067 26903
LILACSAT-1              
1 42725U 98067ME  17318.51488417  .00017530  00000-0  21505-3 0  9990
2 42725  51.6398   5.3458 0004774 137.4644 222.6720 15.60407744 26906
NSIGHT-1                
1 42726U 98067MF  17318.48801197  .00008503  00000-0  11817-3 0  9996
2 42726  51.6408   6.6728 0005740 144.6466 215.4907 15.57898213 26895
SNUSAT-1                
1 42727U 98067MG  17318.38649091  .00017832  00000-0  21980-3 0  9996
2 42727  51.6386   5.9733 0007149  99.8791 260.3010 15.60255047 26852
QBITO                   
1 42728U 98067MH  17318.47908105  .00020122  00000-0  24056-3 0  9994
2 42728  51.6412   5.1198 0002268 131.0341 229.0849 15.60985304 26710
AALTO-2                 
1 42729U 98067MJ  17318.35004595  .00018806  00000-0  22488-3 0  9995
2 42729  51.6400   5.7477 0002205 128.6294 231.4897 15.61030681 26703
SUSAT                   
1 42730U 98067MK  17318.49236154  .00018440  00000-0  22330-3 0  9990
2 42730  51.6395   5.1934 0002401 128.6365 231.4844 15.60714521 26711
I-INSPIRE II            
1 42731U 98067ML  17318.50649462  .00020587  00000-0  23745-3 0  9999
2 42731  51.6385   4.5228 0006754  82.7436 277.4326 15.61886410 26773
POLYITAN-2-SAU          
1 42732U 98067MM  17318.40632798  .00019488  00000-0  23138-3 0  9997
2 42732  51.6390   5.3568 0006769  83.3930 276.7834 15.61172080 26753
SNUSAT-1B               
1 42733U 98067MN  17318.49260230  .00018475  00000-0  22382-3 0  9990
2 42733  51.6394   5.1864 0006830  87.1405 273.0370 15.60684722 26769
EXALTA-1                
1 42734U 98067MP  17318.51154988  .00023535  00000-0  27125-3 0  9999
2 42734  51.6384   4.5597 0007359 108.9141 251.2651 15.61808996 26729
AOXIANG-1               
1 42735U 98067MQ  17318.45912016  .00015140  00000-0  19010-3 0  9994
2 42735  51.6390   5.7159 0006607 135.5401 224.6124 15.59912663 28123
BEEAGLESAT              
1 42736U 98067MR  17318.50951941  .00015983  00000-0  19728-3 0  9992
2 42736  51.6390   5.3019 0006368 133.1767 226.9760 15.60317664 26826
ATLANTIS                
1 42737U 98067MS  17317.57432834  .00050723  00000-0  44605-3 0  9997
2 42737  51.6356   6.5300 0004615  95.5222 264.6301 15.68252799 26617
PROGRESS-MS 06          
1 42756U 17033A   17317.69239547  .00004097  00000-0  69077-4 0  9995
2 42756  51.6432  13.0151 0004473 113.8579  43.1885 15.54139029 85001
ISS DEB (ROSA)          
1 42813U 98067MT  17318.52489168  .00092658  00000-0  74378-3 0  9993
2 42813  51.6361   3.1380 0006198  50.6891 309.4655 15.70207686 22143
SOYUZ-MS 05             
1 42898U 17043A   17317.69239547  .00004097  00000-0  69077-4 0  9993
2 42898  51.6432  13.0151 0004473 113.8579  43.1885 15.54139029 85008
SOYUZ-MS 06             
1 42937U 17054A   17317.69239547  .00004097  00000-0  69077-4 0  9999
2 42937  51.6432  13.0151 0004473 113.8579  43.1885 15.54139029 85002
PROGRESS-MS 07          
1 42971U 17065A   17317.69239547  .00004097  00000-0  69077-4 0  9999
2 42971  51.6432  13.0151 0004473 113.8579  43.1885 15.54139029 85000
KESTREL EYE IIM (KE2M)  
1 42982U 98067NE  17305.65629569  .00008919  00000-0  13962-3 0  9990
2 42982  51.6411  72.9984 0005406  84.5747  14.7663 15.54559432  1274
SIMPL                   
1 42983U 98067NF  17318.38361454  .00003935  00000-0  65488-4 0  9995
2 42983  51.6446   9.5180 0005269 112.0890 339.4875 15.54634696  2785
CYGNUS OA-8             
1 43006U 17071A   17318.26590781  .00003604  00000-0  61643-4 0  9994
2 43006  51.6422  10.1568 0004534 114.4628  13.4467 15.54141338   277
